NORAD_CAT_ID,OBJECT_NAME,OBJECT_TYPE,EPOCH,MEAN_MOTION,ECCENTRICITY,INCLINATION,RA_OF_ASC_NODE,ARG_OF_PERICENTER,MEAN_ANOMALY,BSTAR,MEAN_MOTION_DOT,MEAN_MOTION_DDOT,TLE_LINE0,TLE_LINE1,TLE_LINE2,SEMIMAJOR_AXIS,PERIOD,APOGEE,PERIGEE,DECAYED
53251.0,STARLINK-4129,PAYLOAD,2022-10-26 14:00:01,15.08843886,0.0002429,53.2161,316.2897,27.9162,110.5532,9.5099e-05,1.226e-05,0.0,0 STARLINK-4129,1 53251U 22086K   22299.58334491  .00001226  00000-0  95099-4 0  9992,2 53251  53.2161 316.2897 0002429  27.9162 110.5532 15.08843886  1308,6917.869000000002,95.437,541.414,538.053,0.0
53251.0,STARLINK-4129,PAYLOAD,2022-10-26 22:00:00,15.08813082,0.0002165999999999,53.2161,314.7915,30.3275,119.7538,0.0016769,0.00026481,0.0,0 STARLINK-4129,1 53251U 22086K   22299.91667824  .00026481  00000-0  16769-2 0  9993,2 53251  53.2161 314.7915 0002166  30.3275 119.7538 15.08813082  1305,6917.9630000000025,95.439,541.326,538.3290000000002,0.0
53251.0,STARLINK-4129,PAYLOAD,2022-10-27 14:00:01,15.08841984,0.000243,53.2158,311.8,28.873,144.4403,0.00081227,0.00012664,0.0,0 STARLINK-4129,1 53251U 22086K   22300.58335648  .00012664  00000-0  81227-3 0  9995,2 53251  53.2158 311.8000 0002430  28.8730 144.4403 15.08841984  1304,6917.874,95.437,541.42,538.058,0.0
53251.0,STARLINK-4129,PAYLOAD,2022-10-27 22:00:00,15.08839686,0.0002266,53.2158,310.302,33.5864,151.2714,0.0013672,0.00021538,0.0,0 STARLINK-4129,1 53251U 22086K   22300.91667824  .00021538  00000-0  13672-2 0  9994,2 53251  53.2158 310.3020 0002266  33.5864 151.2714 15.08839686  1305,6917.880999999999,95.438,541.314,538.179,0.0
53251.0,STARLINK-4129,PAYLOAD,2022-10-28 14:00:01,15.08861954,0.0002529999999999,53.2158,307.3105,32.6008,175.5252,-0.002583,-0.00041189,0.0,0 STARLINK-4129,1 53251U 22086K   22301.58335648 -.00041189  00000-0 -25830-2 0  9999,2 53251  53.2158 307.3105 0002530  32.6008 175.5252 15.08861954  1308,6917.813,95.436,541.428,537.928,0.0
53251.0,STARLINK-4129,PAYLOAD,2022-10-28 22:00:01,15.08811232,0.0002334,53.216,305.8124,34.9686,184.7698,0.0029863,0.00047523,0.0,0 STARLINK-4129,1 53251U 22086K   22301.91668981  .00047523  00000-0  29863-2 0  9991,2 53251  53.2160 305.8124 0002334  34.9686 184.7698 15.08811232 15523,6917.968000000003,95.439,541.448,538.219,0.0
53251.0,STARLINK-4129,PAYLOAD,2022-10-29 12:00:00,15.08811428,0.0002563,53.2162,303.1957,30.9476,119.0105,0.0033513,0.00053412,0.0,0 STARLINK-4129,1 53251U 22086K   22302.50001157  .00053412  00000-0  33513-2 0  9994,2 53251  53.2162 303.1957 0002563  30.9476 119.0105 15.08811428  1309,6917.968000000003,95.439,541.606,538.06,0.0
53251.0,STARLINK-4129,PAYLOAD,2022-10-29 22:00:01,15.08838661,0.0002342,53.2165,301.3231,35.162,219.353,0.0024159,0.0003836999999999,0.0,0 STARLINK-4129,1 53251U 22086K   22302.91668981  .00038370  00000-0  24159-2 0  9995,2 53251  53.2165 301.3231 0002342  35.1620 219.3530 15.08838661  1304,6917.884,95.438,541.37,538.129,0.0
53251.0,STARLINK-4129,PAYLOAD,2022-10-30 00:00:00,15.08862199,0.0002340999999999,53.2167,300.9492,35.7342,311.6122,-4.1837e-05,-9.55e-06,0.0,0 STARLINK-4129,1 53251U 22086K   22303.00001157 -.00000955  00000-0 -41837-4 0  9996,2 53251  53.2167 300.9492 0002341  35.7342 311.6122 15.08862199 15699,6917.813,95.436,541.297,538.058,0.0
53251.0,STARLINK-4129,PAYLOAD,2022-10-30 14:00:01,15.0884834,0.0002475,53.2167,298.3319,29.3647,248.2725,-0.0023636,-0.00037719,0.0,0 STARLINK-4129,1 53251U 22086K   22303.58334491 -.00037719  00000-0 -23636-2 0  9992,2 53251  53.2167 298.3319 0002475  29.3647 248.2725 15.08848340  1301,6917.855,95.437,541.432,538.008,0.0
53251.0,STARLINK-4129,PAYLOAD,2022-10-30 22:00:01,15.08811768,0.0002294,53.2169,296.834,32.7839,256.5094,0.0033656999999999,0.00053645,0.0,0 STARLINK-4129,1 53251U 22086K   22303.91668981  .00053645  00000-0  33657-2 0  9991,2 53251  53.2169 296.8340 0002294  32.7839 256.5094 15.08811768  1305,6917.967,95.439,541.419,538.245,0.0
53251.0,STARLINK-4129,PAYLOAD,2022-10-31 14:00:01,15.08857583,0.0002414,53.2169,293.8429,27.9252,284.4761,-0.0033554,-0.00053323,0.0,0 STARLINK-4129,1 53251U 22086K   22304.58334491 -.00053323  00000-0 -33554-2 0  9992,2 53251  53.2169 293.8429 0002414  27.9252 284.4761 15.08857583  1305,6917.8269999999975,95.436,541.362,538.0219999999998,0.0
53251.0,STARLINK-4129,PAYLOAD,2022-10-31 22:00:01,15.08803214,0.0002215,53.2171,292.3452,31.367,292.6996,0.0036156,0.00057668,0.0,0 STARLINK-4129,1 53251U 22086K   22304.91668981  .00057668  00000-0  36156-2 0  9998,2 53251  53.2171 292.3452 0002215  31.3670 292.6996 15.08803214  1303,6917.993,95.44,541.39,538.325,0.0
53251.0,STARLINK-4129,PAYLOAD,2022-11-01 14:00:01,15.08842798,0.0002339,53.2167,289.3538,27.1458,320.0273,-0.0016874,-0.00027046,0.0,0 STARLINK-4129,1 53251U 22086K   22305.58334491 -.00027046  00000-0 -16874-2 0  9992,2 53251  53.2167 289.3538 0002339  27.1458 320.0273 15.08842798 16088,6917.871999999999,95.437,541.355,538.119,0.0
53251.0,STARLINK-4129,PAYLOAD,2022-11-01 22:00:00,15.08829378,0.0002124,53.2169,287.8564,30.0981,328.6623,0.0014470999999999,0.00022811,0.0,0 STARLINK-4129,1 53251U 22086K   22305.91667824  .00022811  00000-0  14471-2 0  9992,2 53251  53.2169 287.8564 0002124  30.0981 328.6623 15.08829378  1309,6917.913000000001,95.438,541.247,538.308,0.0
53251.0,STARLINK-4129,PAYLOAD,2022-11-02 06:00:00,15.08826377,0.0002334999999999,53.2166,286.3618,28.245,342.1136,-0.00030801,-5.185e-05,0.0,0 STARLINK-4129,1 53251U 22086K   22306.25001157 -.00005185  00000-0 -30801-3 0  9994,2 53251  53.2166 286.3618 0002335  28.2450 342.1136 15.08826377 16182,6917.922,95.438,541.4019999999998,538.172,0.0
53251.0,STARLINK-4129,PAYLOAD,2022-11-02 14:00:01,15.08843091,0.0002316999999999,53.2164,284.8624,28.4875,353.4466,-0.0035552,-0.00056434,0.0,0 STARLINK-4129,1 53251U 22086K   22306.58334491 -.00056434  00000-0 -35552-2 0  9990,2 53251  53.2164 284.8624 0002317  28.4875 353.4466 15.08843091  1304,6917.871,95.437,541.339,538.133,0.0
53251.0,STARLINK-4129,PAYLOAD,2022-11-02 18:00:02,15.08792158,0.0002173,53.2168,284.1112,30.3441,177.4554,0.0026956,0.00042818,0.0,0 STARLINK-4129,1 53251U 22086K   22306.75002315  .00042818  00000-0  26956-2 0  9993,2 53251  53.2168 284.1112 0002173  30.3441 177.4554 15.08792158  1303,6918.026999999999,95.441,541.395,538.388,0.0
53251.0,STARLINK-4129,PAYLOAD,2022-11-03 08:58:52,15.08835391,0.0002335,53.2175,281.3145,33.0915,327.0223,0.00012467,1.696e-05,0.0,0 STARLINK-4129,1 53251U 22086K   22307.37421388  .00001696  00000-0  12467-3 0  9999,2 53251  53.2175 281.3145 0002335  33.0915 327.0223 15.08835391 16356,6917.894,95.438,541.375,538.144,0.0
53251.0,STARLINK-4129,PAYLOAD,2022-11-04 02:28:05,15.08854193,0.0002384,53.2174,278.0433,32.618,327.4959,0.00027212,4.047e-05,0.0,0 STARLINK-4129,1 53251U 22086K   22308.10283930  .00004047  00000-0  27212-3 0  9997,2 53251  53.2174 278.0433 0002384  32.6180 327.4959 15.08854193 16464,6917.837,95.437,541.351,538.053,0.0
53251.0,STARLINK-4129,PAYLOAD,2022-11-04 07:14:14,15.08858334,0.0002065,53.216,277.152,40.3952,319.7193,0.00037015,5.611e-05,0.0,0 STARLINK-4129,1 53251U 22086K   22308.30156028  .00005611  00000-0  37015-3 0  9996,2 53251  53.2160 277.1520 0002065  40.3952 319.7193 15.08858334 16673,6917.824000000001,95.436,541.118,538.261,0.0
53251.0,STARLINK-4129,PAYLOAD,2022-11-04 16:46:33,15.08851187,0.000239,53.2161,275.3669,34.6727,325.442,0.00021831,3.189e-05,0.0,0 STARLINK-4129,1 53251U 22086K   22308.69900169  .00003189  00000-0  21831-3 0  9998,2 53251  53.2161 275.3669 0002390  34.6727 325.4420 15.08851187 16558,6917.846,95.437,541.365,538.058,0.0
53251.0,STARLINK-4129,PAYLOAD,2022-11-05 02:18:52,15.08837829,0.0002308,53.2161,273.5812,37.0246,323.0905,-0.00011714,-2.152e-05,0.0,0 STARLINK-4129,1 53251U 22086K   22309.09644444 -.00002152  00000-0 -11714-3 0  9994,2 53251  53.2161 273.5812 0002308  37.0246 323.0905 15.08837829 16616,6917.887,95.438,541.349,538.155,0.0
53251.0,STARLINK-4129,PAYLOAD,2022-11-05 03:54:16,15.08837129,0.000233,53.2165,273.2838,36.7396,323.3756,-1.6989e-05,-5.59e-06,0.0,0 STARLINK-4129,1 53251U 22086K   22309.16268677 -.00000559  00000-0 -16989-4 0  9991,2 53251  53.2165 273.2838 0002330  36.7396 323.3756 15.08837129 16803,6917.889,95.438,541.366,538.1419999999998,0.0
53251.0,STARLINK-4129,PAYLOAD,2022-11-05 16:37:22,15.08828936,0.0002468,53.2176,270.9071,34.2744,325.8407,-0.00011196,-2.069e-05,0.0,0 STARLINK-4129,1 53251U 22086K   22309.69262309 -.00002069  00000-0 -11196-3 0  9997,2 53251  53.2176 270.9071 0002468  34.2744 325.8407 15.08828936 16705,6917.9140000000025,95.438,541.487,538.072,0.0
53251.0,STARLINK-4129,PAYLOAD,2022-11-06 03:45:03,15.08847867,0.000218,53.2176,268.8239,33.0701,327.0427,-3.8903e-05,-9.08e-06,0.0,0 STARLINK-4129,1 53251U 22086K   22310.15628860 -.00000908  00000-0 -38903-4 0  9994,2 53251  53.2176 268.8239 0002180  33.0701 327.0427 15.08847867 16775,6917.856,95.437,541.229,538.2130000000002,0.0
53251.0,STARLINK-4129,PAYLOAD,2022-11-07 03:35:50,15.08829804,0.0002221,53.2178,264.3635,36.3218,323.7924,3.2533e-05,2.29e-06,0.0,0 STARLINK-4129,1 53251U 22086K   22311.14989553  .00000229  00000-0  32533-4 0  9990,2 53251  53.2178 264.3635 0002221  36.3218 323.7924 15.08829804 16926,6917.9119999999975,95.438,541.313,538.24,0.0
53251.0,STARLINK-4129,PAYLOAD,2022-11-07 21:05:06,15.08818424,0.0002175,53.2179,261.0925,34.3387,325.7745,8.8125e-05,1.114e-05,0.0,0 STARLINK-4129,1 53251U 22086K   22311.87854823  .00001114  00000-0  88125-4 0  9993,2 53251  53.2179 261.0925 0002175  34.3387 325.7745 15.08818424 17038,6917.946,95.439,541.316,538.307,0.0
53251.0,STARLINK-4129,PAYLOAD,2022-11-08 03:26:38,15.08828862,0.0002071,53.218,259.9023,36.5255,323.5878,0.00010514,1.385e-05,0.0,0 STARLINK-4129,1 53251U 22086K   22312.14350237  .00001385  00000-0  10514-3 0  9990,2 53251  53.2180 259.9023 0002071  36.5255 323.5878 15.08828862 17072,6917.9140000000025,95.438,541.212,538.347,0.0
